STARLINK-34746          
1 64847U 25152F   25220.91667824  .00003919  00000+0  59173-4 0  9998
2 64847  97.6028  74.0262 0001566  87.7790 101.7206 15.55423972  3889
STARLINK-34748          
1 64848U 25152G   25220.91667824  .00010844  00000+0  16085-3 0  9998
2 64848  97.6027  74.0266 0001539  91.8689  99.5479 15.55421928  3881
STARLINK-34756          
1 64849U 25152H   25220.91667824  .00072178  00000+0  94776-3 0  9990
2 64849  97.6020  74.0312 0001562  74.7513 126.9565 15.58286214  3880
STARLINK-34757          
1 64850U 25152J   25220.91667824  .00066142  00000+0  96671-3 0  9992
2 64850  97.6046  74.0280 0001318  97.8556  97.3942 15.55414483  3884
STARLINK-34722          
1 64851U 25152K   25220.91667824  .00046600  00000+0  68307-3 0  9995
2 64851  97.6042  74.0289 0001505  96.1095 101.0652 15.55420177  3662
STARLINK-34564          
1 64852U 25152L   25220.91667824  .00058100  00000+0  85010-3 0  9994
2 64852  97.6048  74.0297 0001173  92.6405 106.4491 15.55418304  3888
STARLINK-34676          
1 64853U 25152M   25220.91667824  .00013952  00000+0  20645-3 0  9994
2 64853  97.6030  74.0315 0001362  88.7590 112.2658 15.55418704  3886
STARLINK-34682          
1 64854U 25152N   25220.91667824  .00016135  00000+0  23842-3 0  9993
2 64854  97.6030  74.0325 0001564  92.0153 110.9292 15.55420131  3881
STARLINK-34631          
1 64855U 25152P   25220.91667824  .00006764  00000+0  10096-3 0  9998
2 64855  97.6028  74.0326 0001548  92.5887 112.2717 15.55424220  3881
STARLINK-34578          
1 64856U 25152Q   25220.91667824  .00003602  00000+0  54508-4 0  9994
2 64856  97.6032  74.0341 0001435  92.0102 114.7743 15.55424744  3881
STARLINK-34683          
1 64857U 25152R   25220.91667824  .00005281  00000+0  79182-4 0  9995
2 64857  97.6028  74.0349 0001411  90.1563 118.5500 15.55423058  3889
STARLINK-34654          
1 64858U 25152S   25220.91667824 -.00004637  00000+0 -66681-4 0  9992
2 64858  97.6029  74.0361 0001106  84.2467 126.3804 15.55428561  3881
STARLINK-34575          
1 64859U 25152T   25220.91667824 -.00006521  00000+0 -94425-4 0  9994
2 64859  97.6025  74.0368 0001038  84.2265 128.3224 15.55428066  3883
STARLINK-34570          
1 64860U 25152U   25220.91667824  .00036122  00000+0  53068-3 0  9991
2 64860  97.6028  74.0381 0001480  87.4822 126.9854 15.55412273  3884
STARLINK-34651          
1 64861U 25152V   25220.91667824  .00040701  00000+0  59743-3 0  9996
2 64861  97.6029  74.0395 0001480  88.1210 128.2663 15.55411153  3889
STARLINK-34684          
1 64862U 25152W   25220.91667824  .00006561  00000+0  97991-4 0  9991
2 64862  97.6028  74.0393 0001288  90.7059 127.6050 15.55421399  3889
STARLINK-34690          
1 64863U 25152X   25220.91667824  .00010393  00000+0  15424-3 0  9990
2 64863  97.6026  74.0401 0001529  90.9466 129.2825 15.55420974  3886
STARLINK-34628          
1 64864U 25152Y   25220.91667824  .00057938  00000+0  84775-3 0  9992
2 64864  97.6048  74.0403 0001170  90.3014 131.8360 15.55418494  3773
STARLINK-34544          
1 64865U 25152Z   25220.91667824  .00059084  00000+0  86438-3 0  9995
2 64865  97.6048  74.0412 0001261  90.6809 133.3772 15.55417576  3774
O3B MPOWER A            
1 64866U 25153A   25216.04933964  .00000045  00000+0 -10540-2 0  9991
2 64866   8.7040  72.7484 1866856 214.4291 131.9558  7.18924737   893
O3B MPOWER B            
1 64867U 25153B   25215.73691733  .00000047  00000+0 -44399-3 0  9994
2 64867   9.0893  73.3062 1896449 214.2066 132.0093  7.24232134   865
FALCON 9 R/B            
1 64868U 25153C   25220.73051404  .00000058  00000+0  36598-2 0  9998
2 64868   9.7234  66.0618 1940447 229.4081 112.0447  7.32307281  1239
LIDE                    
1 64869U 25154A   25220.90072090  .00003342  00000+0  33838-3 0  9997
2 64869  97.7139 286.6401 0005995 176.6788 183.4471 14.91606194  2404
TRACERS 1               
1 64870U 25154B   25220.76046684  .00000979  00000+0  10168-3 0  9997
2 64870  97.7134 286.5160 0004899 203.1351 156.9648 14.92142475  2382
2025-154C               
1 64871U 25154C   25220.75931484  .00002229  00000+0  22313-3 0  9993
2 64871  97.7114 286.5122 0005775 190.4027 169.7074 14.92397811  2382
2025-154D               
1 64872U 25154D   25220.75933081  .00004185  00000+0  41524-3 0  9997
2 64872  97.7119 286.5152 0004628 210.4771 149.6180 14.92279729  2377
TRACERS 2               
1 64873U 25154E   25220.75769598  .00001223  00000+0  12483-3 0  9990
2 64873  97.7138 286.5201 0005647 213.9038 146.1821 14.92402961  2381
PEXT (BARD)             
1 64874U 25154F   25220.75848129  .00004096  00000+0  20753-3 0  9999
2 64874  97.4404 286.4375 0001475 318.5055  41.6067 15.17531048  2414
REAL                    
1 64875U 25154G   25220.68331978  .00011531  00000+0  56153-3 0  9996
2 64875  97.4460 286.3945 0001854 118.4256 241.7165 15.18520360  2407
IONOSFERA-M 3           
1 64876U 25155A   25220.87683717  .00048020  00000+0  21656-1 0  9991
2 64876  98.5549 186.3884 0002397  63.2969 296.8454 14.21884185  2032
IONOSFERA-M 4           
1 64877U 25155B   25220.88000391  .00000101  00000+0  65845-4 0  9993
2 64877  98.5557 186.3844 0001798  66.9778 293.1589 14.21190150  2031
INNOSAT 16 (RS92S7)     
1 64878U 25155C   25220.84536569  .00003731  00000+0  16991-3 0  9990
2 64878  97.4112 185.8714 0011052 193.9663 166.1269 15.21247057 33123
GEOSCAN 6 (RS92S6)      
1 64879U 25155D   25220.90498966  .00009268  00000+0  40886-3 0  9997
2 64879  97.4126 185.9496 0009028 186.1214 173.9913 15.21956537 33136
GEOSCAN 1 (RS92S1)      
1 64880U 25155E   25220.83907524  .00009448  00000+0  41649-3 0  9994
2 64880  97.4130 185.8861 0008957 186.8181 173.2935 15.21978894 33124
239ALFEROV (RS61S)      
1 64881U 25155F   25220.90385866  .00011366  00000+0  49850-3 0  9996
2 64881  97.4143 185.9550 0008799 186.2134 173.8995 15.22102322 33130
2025-155G               
1 64882U 25155G   25220.83765496  .00008065  00000+0  35472-3 0  9997
2 64882  97.4144 185.8769 0008200 185.9473 174.1667 15.22110937 33122
2025-155H               
1 64883U 25155H   25220.90325685  .00008110  00000+0  35648-3 0  9994
2 64883  97.4143 185.9413 0008156 185.7114 174.4030 15.22127764 33133
2025-155J               
1 64884U 25155J   25220.90316221  .00008038  00000+0  35337-3 0  9995
2 64884  97.4139 185.9410 0008095 186.4527 173.6606 15.22128569 33138
2025-155K               
1 64885U 25155K   25220.83595265  .00019117  00000+0  82747-3 0  9992
2 64885  97.4104 185.8803 0010007 175.3499 184.7832 15.22421450 33125
2025-155L               
1 64886U 25155L   25220.90162987  .00017766  00000+0  76963-3 0  9993
2 64886  97.4105 185.9459 0009750 174.9373 185.1964 15.22411468 33134
2025-155M               
1 64887U 25155M   25220.90174873  .00015441  00000+0  67042-3 0  9997
2 64887  97.4122 185.9494 0009391 175.5426 184.5896 15.22367311 33134
2025-155N               
1 64888U 25155N   25220.90136076  .00017126  00000+0  74149-3 0  9999
2 64888  97.4113 185.9477 0009625 174.5973 185.5368 15.22438584 33138
2025-155P               
1 64889U 25155P   25220.90229383  .00004975  00000+0  21959-3 0  9993
2 64889  97.4142 185.9485 0007756 182.0720 178.0486 15.22190239 33137
GEOSCAN 2 (RS92S2)      
1 64890U 25155Q   25220.90093788  .00009655  00000+0  42049-3 0  9996
2 64890  97.4125 185.9521 0008655 172.6360 187.5005 15.22386061 33137
2025-155R               
1 64891U 25155R   25220.90003891  .00010734  00000+0  46563-3 0  9998
2 64891  97.4136 185.9494 0007273 189.6530 170.4568 15.22502428 33133
2025-155S               
1 64892U 25155S   25220.89998027  .00011570  00000+0  50151-3 0  9998
2 64892  97.4138 185.9503 0007185 191.3016 168.8060 15.22511260 33130
GEOSCAN 3 (RS92S3)      
1 64893U 25155T   25220.83348534  .00011596  00000+0  50136-3 0  9996
2 64893  97.4136 185.8860 0006957 193.1459 166.9597 15.22598785 33121
INNOSAT 3 (RS92S0)      
1 64894U 25155U   25220.89854618  .00013938  00000+0  60020-3 0  9993
2 64894  97.4137 185.9519 0006900 194.4460 165.6581 15.22690949 33134
2025-155V               
1 64895U 25155V   25220.90318885  .00008355  00000+0  36706-3 0  9998
2 64895  97.4147 185.9425 0008150 185.3611 174.7540 15.22139467 33126
MICROCARB               
1 64899U 25156A   25220.88667385  .00000567  00000+0  98688-4 0  9997
2 64899  98.0144 298.1986 0016463 185.2739 174.8297 14.71754667  2022
CO3D 3                  
1 64900U 25156B   25220.82303985  .00007282  00000+0  31656-3 0  9999
2 64900  97.4546 298.9063 0004088 145.7705 214.3796 15.22568130  2076
CO3D 4                  
1 64901U 25156C   25220.88920579  .00006802  00000+0  29595-3 0  9996
2 64901  97.4576 298.9784 0004324 143.2673 216.8860 15.22563056  2082
CO3D 2                  
1 64902U 25156D   25220.49879002  .00005289  00000+0  23815-3 0  9995
2 64902  97.4404 298.5665 0005509 152.7164 207.4362 15.21489898  2020
CO3D 1                  
1 64903U 25156E   25220.76226543  .00003081  00000+0  13919-3 0  9994
2 64903  97.4467 298.8337 0005617 145.4940 214.6661 15.21706617  2067
STARLINK-34647          
1 64904U 25157A   25220.91667824 -.01116986  00000+0 -80308-2 0  9991
2 64904  53.1543 268.0340 0001014 107.3970 109.7124 15.75557603  3362
STARLINK-34273          
1 64905U 25157B   25220.91667824 -.01066520  00000+0 -76546-2 0  9999
2 64905  53.1551 268.0300 0000746  87.2586 131.8748 15.75480101  3375
STARLINK-34713          
1 64906U 25157C   25220.91667824 -.01117265  00000+0 -80831-2 0  9995
2 64906  53.1549 268.0256 0001149 100.8497 120.3494 15.75415749  3315
STARLINK-34712          
1 64907U 25157D   25220.91667824 -.01151609  00000+0 -83916-2 0  9993
2 64907  53.1552 268.0211 0000877  91.7593 131.5124 15.75337812  3366
STARLINK-34702          
1 64908U 25157E   25220.91667824 -.01133008  00000+0 -82732-2 0  9992
2 64908  53.1553 268.0167 0000820 100.9245 124.3965 15.75246743  3368
